*******************************************************************************
Ephemeris / WWW_USER Mon Mar 10 14:33:37 2025 Pasadena, USA      / Horizons    
*******************************************************************************
Target body name: (2018 KH3)                      {source: JPL#10}
Center body name: Earth (399)                     {source: DE441}
Center-site name: Mauna Kea
*******************************************************************************
Start time      : A.D. 2018-Oct-22 04:03:00.0000 UT      
Stop  time      : A.D. 2018-Oct-22 16:09:00.0000 UT      
Step-size       : 1 minutes
*******************************************************************************
Target pole/equ : undefined
Target radii    : undefined                                                    
Center geodetic : 204.5278, 19.8260847, 4.21024   {E-lon(deg),Lat(deg),Alt(km)}
Center cylindric: 204.5278, 6006.35451, 2151.0229 {E-lon(deg),Dxy(km),Dz(km)}
Center pole/equ : ITRF93                          {East-longitude positive}
Center radii    : 6378.137, 6378.137, 6356.752 km {Equator_a, b, pole_c}       
Target primary  : Sun
Vis. interferer : MOON (R_eq= 1737.400) km        {source: DE441}
Rel. light bend : Sun                             {source: DE441}
Rel. lght bnd GM: 1.3271E+11 km^3/s^2                                          
Small-body perts: Yes                             {source: SB441-N16}
Atmos refraction: NO (AIRLESS)
RA format       : HMS
Time format     : CAL 
Calendar mode   : Mixed Julian/Gregorian
RTS-only print  : NO       
EOP file        : eop.250307.p250603                                           
EOP coverage    : DATA-BASED 1962-JAN-20 TO 2025-MAR-07. PREDICTS-> 2025-JUN-02
Units conversion: 1 au= 149597870.700 km, c= 299792.458 km/s, 1 day= 86400.0 s 
Table cut-offs 1: Elevation (-90.0deg=NO ),Airmass (>38.000=NO), Daylight (YES)
Table cut-offs 2: Solar elongation (  0.0,180.0=NO ),Local Hour Angle( 0.0=NO )
Table cut-offs 3: RA/DEC angular rate (     0.0=NO )                           
*******************************************************************************
Initial IAU76/J2000 heliocentric ecliptic osculating elements (au, days, deg.):
  EPOCH=  2458288.5 ! 2018-Jun-19.00 (TDB)         Residual RMS= .22282        
   EC= .960925581819226    QR= 3.698978437965829   TP= 2457875.4618278281      
   OM= 293.0370088641419   W=  320.1514802298502   IN= 46.86534913190896       
  Equivalent ICRF heliocentric cartesian coordinates (au, au/d):
   X= 3.123713088662113E+00  Y=-4.022617727101489E+00  Z=-9.776572180429732E-02
  VX= 7.160289219203867E-03 VY=-1.601856640773144E-03 VZ= 7.695430476273978E-03
Asteroid physical parameters (km, seconds, rotational period in hours):        
   GM= n.a.                RAD= n.a.               ROTPER= n.a.                
   H= 13.69                G= .150                 B-V= n.a.                   
                           ALBEDO= n.a.            STYP= n.a.                  
*******************************************************************************
 Date__(UT)__HR:MN     R.A._________(ICRF)_________DEC
******************************************************
$$SOE
 2018-Oct-22 12:15  m  20 15 48.778393 +06 55 48.73414
 2018-Oct-22 12:16  m  20 15 48.786002 +06 55 48.71251
 2018-Oct-22 12:17  m  20 15 48.793613 +06 55 48.69087
 2018-Oct-22 12:18  m  20 15 48.801226 +06 55 48.66924
 2018-Oct-22 12:19  m  20 15 48.808841 +06 55 48.64761
 2018-Oct-22 12:20  m  20 15 48.816458 +06 55 48.62599
 2018-Oct-22 12:21  m  20 15 48.824078 +06 55 48.60436
 2018-Oct-22 12:22  m  20 15 48.831699 +06 55 48.58274
 2018-Oct-22 12:23  m  20 15 48.839322 +06 55 48.56113
 2018-Oct-22 12:24  m  20 15 48.846947 +06 55 48.53951
 2018-Oct-22 12:25  m  20 15 48.854575 +06 55 48.51790
 2018-Oct-22 12:26  m  20 15 48.862204 +06 55 48.49629
 2018-Oct-22 12:27  m  20 15 48.869835 +06 55 48.47468
 2018-Oct-22 12:28  m  20 15 48.877468 +06 55 48.45307
 2018-Oct-22 12:29  m  20 15 48.885103 +06 55 48.43147
 2018-Oct-22 12:30  m  20 15 48.892741 +06 55 48.40987
 2018-Oct-22 12:31  m  20 15 48.900380 +06 55 48.38827
 2018-Oct-22 12:32  m  20 15 48.908021 +06 55 48.36668
 2018-Oct-22 12:33  m  20 15 48.915664 +06 55 48.34508
 2018-Oct-22 12:34  m  20 15 48.923309 +06 55 48.32350
 2018-Oct-22 12:35  m  20 15 48.930956 +06 55 48.30191
 2018-Oct-22 12:36  m  20 15 48.938605 +06 55 48.28032
 2018-Oct-22 12:37  m  20 15 48.946256 +06 55 48.25874
 2018-Oct-22 12:38  m  20 15 48.953909 +06 55 48.23716
 2018-Oct-22 12:39  m  20 15 48.961564 +06 55 48.21559
 2018-Oct-22 12:40  m  20 15 48.969220 +06 55 48.19402
 2018-Oct-22 12:41  m  20 15 48.976879 +06 55 48.17245
 2018-Oct-22 12:42  m  20 15 48.984540 +06 55 48.15088
 2018-Oct-22 12:43  m  20 15 48.992202 +06 55 48.12931
 2018-Oct-22 12:44  m  20 15 48.999867 +06 55 48.10775
 2018-Oct-22 12:45  m  20 15 49.007533 +06 55 48.08619
 2018-Oct-22 12:46  m  20 15 49.015201 +06 55 48.06464
 2018-Oct-22 12:47  m  20 15 49.022872 +06 55 48.04308
 2018-Oct-22 12:48  m  20 15 49.030544 +06 55 48.02153
 2018-Oct-22 12:49  m  20 15 49.038218 +06 55 47.99999
 2018-Oct-22 12:50  m  20 15 49.045894 +06 55 47.97844
 2018-Oct-22 12:51  m  20 15 49.053572 +06 55 47.95690
 2018-Oct-22 12:52  m  20 15 49.061251 +06 55 47.93536
 2018-Oct-22 12:53  m  20 15 49.068933 +06 55 47.91383
 2018-Oct-22 12:54  m  20 15 49.076616 +06 55 47.89229
 2018-Oct-22 12:55  m  20 15 49.084302 +06 55 47.87076
 2018-Oct-22 12:56  m  20 15 49.091989 +06 55 47.84924
 2018-Oct-22 12:57  m  20 15 49.099678 +06 55 47.82771
 2018-Oct-22 12:58  m  20 15 49.107369 +06 55 47.80619
 2018-Oct-22 12:59  m  20 15 49.115061 +06 55 47.78467
 2018-Oct-22 13:00  m  20 15 49.122756 +06 55 47.76316
 2018-Oct-22 13:01  m  20 15 49.130452 +06 55 47.74165
 2018-Oct-22 13:02  m  20 15 49.138151 +06 55 47.72014
 2018-Oct-22 13:03  m  20 15 49.145851 +06 55 47.69863
 2018-Oct-22 13:04  m  20 15 49.153553 +06 55 47.67713
 2018-Oct-22 13:05  m  20 15 49.161256 +06 55 47.65563
 2018-Oct-22 13:06  m  20 15 49.168962 +06 55 47.63413
 2018-Oct-22 13:07  m  20 15 49.176669 +06 55 47.61264
 2018-Oct-22 13:08  m  20 15 49.184379 +06 55 47.59115
 2018-Oct-22 13:09  m  20 15 49.192090 +06 55 47.56966
 2018-Oct-22 13:10  m  20 15 49.199802 +06 55 47.54818
 2018-Oct-22 13:11  m  20 15 49.207517 +06 55 47.52670
 2018-Oct-22 13:12  m  20 15 49.215233 +06 55 47.50522
 2018-Oct-22 13:13  m  20 15 49.222951 +06 55 47.48375
 2018-Oct-22 13:14  m  20 15 49.230671 +06 55 47.46228
 2018-Oct-22 13:15  m  20 15 49.238393 +06 55 47.44081
 2018-Oct-22 13:16  m  20 15 49.246116 +06 55 47.41934
 2018-Oct-22 13:17  m  20 15 49.253842 +06 55 47.39788
 2018-Oct-22 13:18  m  20 15 49.261569 +06 55 47.37643
 2018-Oct-22 13:19  m  20 15 49.269297 +06 55 47.35497
 2018-Oct-22 13:20  m  20 15 49.277028 +06 55 47.33352
 2018-Oct-22 13:21  m  20 15 49.284760 +06 55 47.31207
 2018-Oct-22 13:22  m  20 15 49.292494 +06 55 47.29063
 2018-Oct-22 13:23  m  20 15 49.300230 +06 55 47.26918
 2018-Oct-22 13:24  m  20 15 49.307967 +06 55 47.24774
 2018-Oct-22 13:25  m  20 15 49.315706 +06 55 47.22631
 2018-Oct-22 13:26  m  20 15 49.323447 +06 55 47.20488
 2018-Oct-22 13:27  m  20 15 49.331189 +06 55 47.18345
 2018-Oct-22 13:28  m  20 15 49.338933 +06 55 47.16202
 2018-Oct-22 13:29  m  20 15 49.346679 +06 55 47.14060
 2018-Oct-22 13:30  m  20 15 49.354427 +06 55 47.11918
 2018-Oct-22 13:31  m  20 15 49.362176 +06 55 47.09777
 2018-Oct-22 13:32  m  20 15 49.369927 +06 55 47.07636
 2018-Oct-22 13:33  m  20 15 49.377680 +06 55 47.05495
 2018-Oct-22 13:34  m  20 15 49.385434 +06 55 47.03355
 2018-Oct-22 13:35  m  20 15 49.393190 +06 55 47.01214
 2018-Oct-22 13:36  m  20 15 49.400947 +06 55 46.99075
 2018-Oct-22 13:37  m  20 15 49.408707 +06 55 46.96935
 2018-Oct-22 13:38  m  20 15 49.416468 +06 55 46.94796
 2018-Oct-22 13:39  m  20 15 49.424230 +06 55 46.92657
 2018-Oct-22 13:40  m  20 15 49.431994 +06 55 46.90519
 2018-Oct-22 13:41  m  20 15 49.439760 +06 55 46.88381
 2018-Oct-22 13:42  m  20 15 49.447527 +06 55 46.86243
 2018-Oct-22 13:43  m  20 15 49.455296 +06 55 46.84106
 2018-Oct-22 13:44  m  20 15 49.463067 +06 55 46.81969
 2018-Oct-22 13:45  m  20 15 49.470839 +06 55 46.79832
 2018-Oct-22 13:46  m  20 15 49.478613 +06 55 46.77696
 2018-Oct-22 13:47  m  20 15 49.486388 +06 55 46.75560
 2018-Oct-22 13:48  m  20 15 49.494165 +06 55 46.73425
 2018-Oct-22 13:49  m  20 15 49.501943 +06 55 46.71289
 2018-Oct-22 13:50  m  20 15 49.509724 +06 55 46.69155
 2018-Oct-22 13:51  m  20 15 49.517505 +06 55 46.67020
 2018-Oct-22 13:52  m  20 15 49.525288 +06 55 46.64886
 2018-Oct-22 13:53  m  20 15 49.533073 +06 55 46.62752
 2018-Oct-22 13:54  m  20 15 49.540859 +06 55 46.60619
 2018-Oct-22 13:55  m  20 15 49.548647 +06 55 46.58486
 2018-Oct-22 13:56  m  20 15 49.556436 +06 55 46.56353
 2018-Oct-22 13:57  m  20 15 49.564227 +06 55 46.54221
 2018-Oct-22 13:58  m  20 15 49.572020 +06 55 46.52089
 2018-Oct-22 13:59  m  20 15 49.579814 +06 55 46.49957
 2018-Oct-22 14:00  m  20 15 49.587609 +06 55 46.47826
 2018-Oct-22 14:01  m  20 15 49.595406 +06 55 46.45695
 2018-Oct-22 14:02  m  20 15 49.603204 +06 55 46.43565
 2018-Oct-22 14:03  m  20 15 49.611004 +06 55 46.41435
 2018-Oct-22 14:04  m  20 15 49.618805 +06 55 46.39305
 2018-Oct-22 14:05  m  20 15 49.626608 +06 55 46.37176
 2018-Oct-22 14:06  m  20 15 49.634412 +06 55 46.35047
 2018-Oct-22 14:07  m  20 15 49.642218 +06 55 46.32918
 2018-Oct-22 14:08  m  20 15 49.650025 +06 55 46.30790
 2018-Oct-22 14:09  m  20 15 49.657834 +06 55 46.28662
 2018-Oct-22 14:10  m  20 15 49.665644 +06 55 46.26535
 2018-Oct-22 14:11  m  20 15 49.673455 +06 55 46.24408
 2018-Oct-22 14:12  m  20 15 49.681268 +06 55 46.22281
 2018-Oct-22 14:13  m  20 15 49.689083 +06 55 46.20155
 2018-Oct-22 14:14  m  20 15 49.696898 +06 55 46.18029
 2018-Oct-22 14:15  m  20 15 49.704715 +06 55 46.15903
 2018-Oct-22 14:16  m  20 15 49.712534 +06 55 46.13778
 2018-Oct-22 14:17  m  20 15 49.720354 +06 55 46.11653
